ORBCOMM FM24            
1 25478U 98053D   24352.17982371  .00002566  00000+0  90144-3 0  9994
2 25478  45.0088  51.5297 0001731 303.9898  56.0786 14.37183500371537
ORBCOMM FM25            
1 25479U 98053E   24351.87048423  .00002342  00000+0  82726-3 0  9991
2 25479  45.0079  51.2485 0002268  18.1966 341.8962 14.37164330371509
ORBCOMM FM26            
1 25480U 98053F   24351.83956596  .00002452  00000+0  87792-3 0  9998
2 25480  45.0076  46.6240 0003630  64.8025 295.3199 14.36368369371426
ORBCOMM FM27            
1 25481U 98053G   24352.13815418  .00002763  00000+0  96757-3 0  9996
2 25481  45.0062  50.2311 0002310 262.4675  97.5910 14.37166434371516
ORBCOMM FM28            
1 25482U 98053H   24352.13622771  .00002413  00000+0  84602-3 0  9993
2 25482  45.0066 348.0702 0001939  90.2564 269.8506 14.37459575372329
ORBCOMM FM30            
1 25980U 99065A   24351.84939046  .00001739  00000+0  63468-3 0  9990
2 25980  45.0308 232.3170 0005757 170.0168 190.0796 14.36522622308221
ORBCOMM FM31            
1 25981U 99065B   24351.88684345  .00001730  00000+0  63194-3 0  9991
2 25981  45.0220 225.7003 0003098 194.8935 165.1822 14.36492960307782
ORBCOMM FM32            
1 25982U 99065C   24351.95042554  .00001845  00000+0  68381-3 0  9990
2 25982  45.0151 240.7435 0004882 198.1491 161.9183 14.35527734308409
